NORAD_CAT_ID,OBJECT_NAME,OBJECT_TYPE,EPOCH,MEAN_MOTION,ECCENTRICITY,INCLINATION,RA_OF_ASC_NODE,ARG_OF_PERICENTER,MEAN_ANOMALY,BSTAR,MEAN_MOTION_DOT,MEAN_MOTION_DDOT,TLE_LINE0,TLE_LINE1,TLE_LINE2,SEMIMAJOR_AXIS,PERIOD,APOGEE,PERIGEE,DECAYED
52376.0,STARLINK-3767,PAYLOAD,2024-05-14 10:09:40,15.08869588,0.0002278,53.2162,291.1271,58.1858,301.9356,0.00046709,7.159e-05,0.0,0 STARLINK-3767,1 52376U 22045AX  24135.42338202  .00007159  00000-0  46709-3 0  9996,2 52376  53.2162 291.1271 0002278  58.1858 301.9356 15.08869588115643,6917.79,95.436,541.231,538.079,0.0
52376.0,STARLINK-3767,PAYLOAD,2024-05-14 16:31:12,15.08877519,0.0002051,53.2149,289.938,54.4306,305.6877,0.00065655,0.00010187,0.0,0 STARLINK-3767,1 52376U 22045AX  24135.68833438  .00010187  00000-0  65655-3 0  9991,2 52376  53.2149 289.9380 0002051  54.4306 305.6877 15.08877519115686,6917.766,95.435,541.05,538.212,0.0
52376.0,STARLINK-3767,PAYLOAD,2024-05-15 03:38:53,15.08870806,0.0002065,53.2159,287.8532,68.0706,292.0505,0.00025442,3.767e-05,0.0,0 STARLINK-3767,1 52376U 22045AX  24136.15200882  .00003767  00000-0  25442-3 0  9991,2 52376  53.2159 287.8532 0002065  68.0706 292.0505 15.08870806115750,6917.786,95.436,541.08,538.223,0.0
52376.0,STARLINK-3767,PAYLOAD,2024-05-15 10:00:26,15.08847915,0.0001951,53.2143,286.6634,71.9721,288.1484,-0.0003414,-5.719e-05,0.0,0 STARLINK-3767,1 52376U 22045AX  24136.41697171 -.00005719  00000-0 -34140-3 0  9997,2 52376  53.2143 286.6634 0001951  71.9721 288.1484 15.08847915115797,6917.856,95.437,541.071,538.372,0.0
52376.0,STARLINK-3767,PAYLOAD,2024-05-15 14:46:35,15.0885408,0.0001787,53.2148,285.7717,78.1425,281.9767,-5.6882e-05,-1.194e-05,0.0,0 STARLINK-3767,1 52376U 22045AX  24136.61568939 -.00001194  00000-0 -56882-4 0  9999,2 52376  53.2148 285.7717 0001787  78.1425 281.9767 15.08854080115821,6917.837,95.437,540.939,538.466,0.0
52376.0,STARLINK-3767,PAYLOAD,2024-05-15 16:21:58,15.08855735,0.0001796,53.2146,285.4742,65.9909,294.1271,0.00011635,1.565e-05,0.0,0 STARLINK-3767,1 52376U 22045AX  24136.68192931  .00001565  00000-0  11635-3 0  9997,2 52376  53.2146 285.4742 0001796  65.9909 294.1271 15.08855735115830,6917.832,95.437,540.94,538.455,0.0
52376.0,STARLINK-3767,PAYLOAD,2024-05-16 09:51:13,15.08850203,0.0001639,53.2174,282.2025,92.2482,267.8698,0.00031755,4.771e-05,0.0,0 STARLINK-3767,1 52376U 22045AX  24137.41056849  .00004771  00000-0  31755-3 0  9993,2 52376  53.2174 282.2025 0001639  92.2482 267.8698 15.08850203115942,6917.849,95.437,540.848,538.58,0.0
52376.0,STARLINK-3767,PAYLOAD,2024-05-16 16:12:45,15.08873816,0.0002589,53.2131,281.0143,78.8193,281.309,0.00087736,0.00013716,0.0,0 STARLINK-3767,1 52376U 22045AX  24137.67552385  .00013716  00000-0  87736-3 0  9996,2 52376  53.2131 281.0143 0002589  78.8193 281.3090 15.08873816115983,6917.777,95.435,541.433,537.851,0.0
52376.0,STARLINK-3767,PAYLOAD,2024-05-17 09:41:59,15.08850194,0.0001028,53.2155,277.7426,28.2471,331.8577,0.00038036,5.772e-05,0.0,0 STARLINK-3767,1 52376U 22045AX  24138.40416566  .00005772  00000-0  38036-3 0  9990,2 52376  53.2155 277.7426 0001028  28.2471 331.8577 15.08850194116098,6917.849,95.437,540.425,539.003,0.0
52376.0,STARLINK-3767,PAYLOAD,2024-05-17 19:14:18,15.08862686,0.0001727,53.2167,275.9606,82.206,277.9128,0.00055564,8.571e-05,0.0,0 STARLINK-3767,1 52376U 22045AX  24138.80159974  .00008571  00000-0  55564-3 0  9996,2 52376  53.2167 275.9606 0001727  82.2060 277.9128 15.08862686116159,6917.811,95.436,540.871,538.481,0.0
52376.0,STARLINK-3767,PAYLOAD,2024-05-18 01:35:51,15.08836756,0.0002517,53.2168,274.7696,86.7527,273.3753,-0.00017362,-3.05e-05,0.0,0 STARLINK-3767,1 52376U 22045AX  24139.06656579 -.00003050  00000-0 -17362-3 0  9991,2 52376  53.2168 274.7696 0002517  86.7527 273.3753 15.08836756116198,6917.89,95.438,541.497,538.014,0.0
52376.0,STARLINK-3767,PAYLOAD,2024-05-18 12:43:32,15.08852656,0.000189,53.2134,272.6868,108.4167,251.7031,0.00055586,8.573e-05,0.0,0 STARLINK-3767,1 52376U 22045AX  24139.53023804  .00008573  00000-0  55586-3 0  9995,2 52376  53.2134 272.6868 0001890 108.4167 251.7031 15.08852656116268,6917.842,95.437,541.014,538.399,0.0
52376.0,STARLINK-3767,PAYLOAD,2024-05-18 14:18:55,15.08852948,0.0001836,53.2145,272.3898,95.3876,264.7326,0.00063725,9.872e-05,0.0,0 STARLINK-3767,1 52376U 22045AX  24139.59647881  .00009872  00000-0  63725-3 0  9995,2 52376  53.2145 272.3898 0001836  95.3876 264.7326 15.08852948116277,6917.841,95.437,540.976,538.436,0.0
52376.0,STARLINK-3767,PAYLOAD,2024-05-18 15:54:18,15.08860493,0.0001399,53.214,272.0936,86.5145,273.6007,0.00089121,0.00013932,0.0,0 STARLINK-3767,1 52376U 22045AX  24139.66271796  .00013932  00000-0  89121-3 0  9991,2 52376  53.2140 272.0936 0001399  86.5145 273.6007 15.08860493116287,6917.818,95.436,540.651,538.715,0.0
52376.0,STARLINK-3767,PAYLOAD,2024-05-19 01:26:37,15.08850039,0.0001108,53.2161,270.3097,67.6132,292.4977,0.00018681,2.687e-05,0.0,0 STARLINK-3767,1 52376U 22045AX  24140.06015733  .00002687  00000-0  18681-3 0  9992,2 52376  53.2161 270.3097 0001108  67.6132 292.4977 15.08850039116340,6917.85,95.437,540.481,538.948,0.0
52376.0,STARLINK-3767,PAYLOAD,2024-05-19 14:09:44,15.08812655,0.0001424,53.2161,267.9311,95.7521,264.3633,-0.00037453,-6.239e-05,0.0,0 STARLINK-3767,1 52376U 22045AX  24140.59009483 -.00006239  00000-0 -37453-3 0  9992,2 52376  53.2161 267.9311 0001424  95.7521 264.3633 15.08812655116424,6917.964,95.439,540.814,538.844,0.0
52376.0,STARLINK-3767,PAYLOAD,2024-05-19 17:20:30,15.0882747,0.0001345,53.2158,267.3362,72.0924,288.0215,0.00023605,3.47e-05,0.0,0 STARLINK-3767,1 52376U 22045AX  24140.72257560  .00003470  00000-0  23605-3 0  9994,2 52376  53.2158 267.3362 0001345  72.0924 288.0215 15.08827470116449,6917.919,95.438,540.714,538.853,0.0
52376.0,STARLINK-3767,PAYLOAD,2024-05-20 14:00:31,15.08845913,0.0001411,53.2159,263.4709,62.6143,297.4993,0.00081341,0.00012683,0.0,0 STARLINK-3767,1 52376U 22045AX  24141.58370096  .00012683  00000-0  81341-3 0  9996,2 52376  53.2159 263.4709 0001411  62.6143 297.4993 15.08845913116577,6917.862,95.437,540.703,538.751,0.0
52376.0,STARLINK-3767,PAYLOAD,2024-05-20 17:11:17,15.08873758,0.0001414,53.2161,262.8774,69.9258,290.1886,0.0018486,0.00029282,0.0,0 STARLINK-3767,1 52376U 22045AX  24141.71617690  .00029282  00000-0  18486-2 0  9997,2 52376  53.2161 262.8774 0001414  69.9258 290.1886 15.08873758116596,6917.777,95.435,540.62,538.664,0.0
52376.0,STARLINK-3767,PAYLOAD,2024-05-21 12:15:55,15.0884728,0.0002859,53.2156,259.3056,147.3722,212.7447,0.0012387,0.00019485,0.0,0 STARLINK-3767,1 52376U 22045AX  24142.51105567  .00019485  00000-0  12387-2 0  9999,2 52376  53.2156 259.3056 0002859 147.3722 212.7447 15.08847280116713,6917.858,95.437,541.701,537.745,0.0
52376.0,STARLINK-3767,PAYLOAD,2024-05-21 13:51:18,15.08849259,0.0002603,53.2164,259.0094,141.94,218.1776,0.0011762,0.00018486,0.0,0 STARLINK-3767,1 52376U 22045AX  24142.57729573  .00018486  00000-0  11762-2 0  9990,2 52376  53.2164 259.0094 0002603 141.9400 218.1776 15.08849259116725,6917.852,95.437,541.518,537.916,0.0
52376.0,STARLINK-3767,PAYLOAD,2024-05-21 15:26:41,15.08849487,0.0001709,53.2171,258.7101,53.6795,306.4354,0.0011897,0.00018702,0.0,0 STARLINK-3767,1 52376U 22045AX  24142.64354116  .00018702  00000-0  11897-2 0  9995,2 52376  53.2171 258.7101 0001709  53.6795 306.4354 15.08849487116737,6917.851,95.437,540.899,538.534,0.0
52376.0,STARLINK-3767,PAYLOAD,2024-05-22 12:06:42,15.08836823,0.0001269,53.2152,254.8493,77.6219,282.4915,0.0010001,0.00015663,0.0,0 STARLINK-3767,1 52376U 22045AX  24143.50466290  .00015663  00000-0  10001-2 0  9997,2 52376  53.2152 254.8493 0001269  77.6219 282.4915 15.08836823116865,6917.89,95.438,540.633,538.877,0.0
52376.0,STARLINK-3767,PAYLOAD,2024-05-23 13:32:53,15.08836683,0.000143,53.215,250.0928,69.8575,290.2571,0.00017646,2.521e-05,0.0,0 STARLINK-3767,1 52376U 22045AX  24144.56450770  .00002521  00000-0  17646-3 0  9992,2 52376  53.2150 250.0928 0001430  69.8575 290.2571 15.08836683117020,6917.891,95.438,540.745,538.766,0.0
52376.0,STARLINK-3767,PAYLOAD,2024-05-24 13:23:40,15.08842919,0.0001514,53.2168,245.6331,84.5874,275.5291,0.00018785,2.703e-05,0.0,0 STARLINK-3767,1 52376U 22045AX  24145.55810671  .00002703  00000-0  18785-3 0  9999,2 52376  53.2168 245.6331 0001514  84.5874 275.5291 15.08842919117176,6917.871,95.437,540.784,538.689,0.0
52376.0,STARLINK-3767,PAYLOAD,2024-05-24 16:34:26,15.08846982,0.0001349,53.2163,245.0314,90.2005,269.9141,0.00014736,2.059e-05,0.0,0 STARLINK-3767,1 52376U 22045AX  24145.69058246  .00002059  00000-0  14736-3 0  9992,2 52376  53.2163 245.0314 0001349  90.2005 269.9141 15.08846982117199,6917.859,95.437,540.657,538.791,0.0
52376.0,STARLINK-3767,PAYLOAD,2024-05-25 13:14:27,15.08841723,0.000132,53.2158,241.172,85.065,275.0493,0.00014513,2.023e-05,0.0,0 STARLINK-3767,1 52376U 22045AX  24146.55170834  .00002023  00000-0  14513-3 0  9990,2 52376  53.2158 241.1720 0001320  85.0650 275.0493 15.08841723117329,6917.875,95.437,540.653,538.827,0.0
52376.0,STARLINK-3767,PAYLOAD,2024-05-26 11:29:51,15.08848289,0.0001356,53.2159,237.0056,101.575,258.5395,5.2686e-05,5.51e-06,0.0,0 STARLINK-3767,1 52376U 22045AX  24147.47906267  .00000551  00000-0  52686-4 0  9997,2 52376  53.2159 237.0056 0001356 101.5750 258.5395 15.08848289117466,6917.855,95.437,540.658,538.782,0.0
52376.0,STARLINK-3767,PAYLOAD,2024-05-26 22:37:33,15.08843469,0.0001354,53.216,234.9273,101.122,258.9925,7.015e-06,-1.76e-06,0.0,0 STARLINK-3767,1 52376U 22045AX  24147.94274442 -.00000176  00000-0  70150-5 0  9993,2 52376  53.2160 234.9273 0001354 101.1220 258.9925 15.08843469117537,6917.87,95.437,540.671,538.798,0.0
52376.0,STARLINK-3767,PAYLOAD,2024-05-27 12:56:01,15.08839107,0.0001385,53.2173,232.2525,80.9351,279.1798,6.5522e-05,7.55e-06,0.0,0 STARLINK-3767,1 52376U 22045AX  24148.53890886  .00000755  00000-0  65522-4 0  9993,2 52376  53.2173 232.2525 0001385  80.9351 279.1798 15.08839107117622,6917.883,95.438,540.706,538.79,0.0
